1998-067XK              
1 65731U 98067XK  25275.12799203  .00085087  00000+0  13244-2 0  9999
2 65731  51.6320 136.8396 0000733 208.3158 151.7792 15.53163265  1973
RSP-03                  
1 65732U 98067XL  25274.99862125  .00102193  00000+0  15739-2 0  9997
2 65732  51.6320 137.4756 0000793 219.2738 140.8195 15.53370847  1963
1998-067XM              
1 65733U 98067XM  25275.12588631  .00115535  00000+0  17494-2 0  9995
2 65733  51.6318 136.8257 0003097  99.4546 260.6795 15.53775623  1985
