[{"OBJECT_NAME":"1998-067XK","OBJECT_ID":"1998-067XK","EPOCH":"2025-10-02T03:04:18.511392","MEAN_MOTION":15.53163265,"ECCENTRICITY":7.33e-5,"INCLINATION":51.632,"RA_OF_ASC_NODE":136.8396,"ARG_OF_PERICENTER":208.3158,"MEAN_ANOMALY":151.7792,"EPHEMERIS_TYPE":0,"CLASSIFICATION_TYPE":"U","NORAD_CAT_ID":65731,"ELEMENT_SET_NO":999,"REV_AT_EPOCH":197,"BSTAR":0.0013244,"MEAN_MOTION_DOT":0.00085087,"MEAN_MOTION_DDOT":0},{"OBJECT_NAME":"RSP-03","OBJECT_ID":"1998-067XL","EPOCH":"2025-10-01T23:58:00.876000","MEAN_MOTION":15.53370847,"ECCENTRICITY":7.93e-5,"INCLINATION":51.632,"RA_OF_ASC_NODE":137.4756,"ARG_OF_PERICENTER":219.2738,"MEAN_ANOMALY":140.8195,"EPHEMERIS_TYPE":0,"CLASSIFICATION_TYPE":"U","NORAD_CAT_ID":65732,"ELEMENT_SET_NO":999,"REV_AT_EPOCH":196,"BSTAR":0.0015739,"MEAN_MOTION_DOT":0.00102193,"MEAN_MOTION_DDOT":0},{"OBJECT_NAME":"1998-067XM","OBJECT_ID":"1998-067XM","EPOCH":"2025-10-02T03:01:16.577184","MEAN_MOTION":15.53775623,"ECCENTRICITY":0.0003097,"INCLINATION":51.6318,"RA_OF_ASC_NODE":136.8257,"ARG_OF_PERICENTER":99.4546,"MEAN_ANOMALY":260.6795,"EPHEMERIS_TYPE":0,"CLASSIFICATION_TYPE":"U","NORAD_CAT_ID":65733,"ELEMENT_SET_NO":999,"REV_AT_EPOCH":198,"BSTAR":0.0017494,"MEAN_MOTION_DOT":0.00115535,"MEAN_MOTION_DDOT":0}]
